NORAD_CAT_ID,OBJECT_NAME,OBJECT_TYPE,EPOCH,MEAN_MOTION,ECCENTRICITY,INCLINATION,RA_OF_ASC_NODE,ARG_OF_PERICENTER,MEAN_ANOMALY,BSTAR,MEAN_MOTION_DOT,MEAN_MOTION_DDOT,TLE_LINE0,TLE_LINE1,TLE_LINE2,SEMIMAJOR_AXIS,PERIOD,APOGEE,PERIGEE,DECAYED
53031.0,STARLINK-4137,PAYLOAD,2022-11-28 04:47:18,15.08836401,0.0001783,53.22,49.8664,49.3115,310.8032,-8.6809e-05,-1.669e-05,0.0,0 STARLINK-4137,1 53031U 22076AX  22332.19952135 -.00001669  00000-0 -86809-4 0  9995,2 53031  53.2200  49.8664 0001783  49.3115 310.8032 15.08836401 22811,6917.891,95.438,540.99,538.523,0.0
53031.0,STARLINK-4137,PAYLOAD,2022-11-28 09:33:27,15.08844163,0.0001753,53.2211,48.9766,59.2738,300.8426,-4.5254e-05,-1.008e-05,0.0,0 STARLINK-4137,1 53031U 22076AX  22332.39823503 -.00001008  00000-0 -45254-4 0  9999,2 53031  53.2211  48.9766 0001753  59.2738 300.8426 15.08844163 22375,6917.868,95.437,540.945,538.52,0.0
53031.0,STARLINK-4137,PAYLOAD,2022-11-29 10:59:38,15.08833627,0.0001629999999999,53.2199,44.2185,50.5534,309.5602,7.5929e-05,9.2e-06,0.0,0 STARLINK-4137,1 53031U 22076AX  22333.45807878  .00000920  00000-0  75929-4 0  9996,2 53031  53.2199  44.2185 0001630  50.5534 309.5602 15.08833627 23002,6917.9,95.438,540.8919999999998,538.637,0.0
53031.0,STARLINK-4137,PAYLOAD,2022-11-29 12:35:00,15.08836327,0.000178,53.2201,43.9211,52.0157,308.0996,0.00012623,1.721e-05,0.0,0 STARLINK-4137,1 53031U 22076AX  22333.52431583  .00001721  00000-0  12623-3 0  9991,2 53031  53.2201  43.9211 0001780  52.0157 308.0996 15.08836327 22544,6917.892,95.438,540.988,538.525,0.0
53031.0,STARLINK-4137,PAYLOAD,2022-11-30 10:50:24,15.08843289,0.0001964,53.2201,39.759,52.487,307.6301,4.653100000000001e-05,4.53e-06,0.0,0 STARLINK-4137,1 53031U 22076AX  22334.45167688  .00000453  00000-0  46531-4 0  9993,2 53031  53.2201  39.7590 0001964  52.4870 307.6301 15.08843289 22682,6917.87,95.437,541.094,538.377,0.0
53031.0,STARLINK-4137,PAYLOAD,2022-11-30 21:58:07,15.08840151,0.0001726,53.2189,37.6766,49.262,310.8522,-4.1056e-05,-9.41e-06,0.0,0 STARLINK-4137,1 53031U 22076AX  22334.91536097 -.00000941  00000-0 -41056-4 0  9999,2 53031  53.2189  37.6766 0001726  49.2620 310.8522 15.08840151 23229,6917.88,95.438,540.939,538.5509999999998,0.0
53031.0,STARLINK-4137,PAYLOAD,2022-12-01 10:41:12,15.0883628,0.0001793,53.2184,35.2975,50.2976,309.8174,-1.4282e-05,-5.15e-06,0.0,0 STARLINK-4137,1 53031U 22076AX  22335.44528393 -.00000515  00000-0 -14282-4 0  9996,2 53031  53.2184  35.2975 0001793  50.2976 309.8174 15.08836280 22835,6917.892,95.438,540.997,538.516,0.0
53031.0,STARLINK-4137,PAYLOAD,2022-12-01 15:27:22,15.08834951,0.0001817,53.2185,34.4055,51.1755,308.9399,-4.1358e-05,-9.46e-06,0.0,0 STARLINK-4137,1 53031U 22076AX  22335.64400608 -.00000946  00000-0 -41358-4 0  9998,2 53031  53.2185  34.4055 0001817  51.1755 308.9399 15.08834951 22863,6917.896,95.438,541.018,538.504,0.0
53031.0,STARLINK-4137,PAYLOAD,2022-12-02 15:18:08,15.08844633,0.0001781999999999,53.2191,29.9456,47.8026,312.3117,5.6303e-06,-1.99e-06,0.0,0 STARLINK-4137,1 53031U 22076AX  22336.63759801 -.00000199  00000-0  56303-5 0  9996,2 53031  53.2191  29.9456 0001782  47.8026 312.3117 15.08844633 23482,6917.866,95.437,540.964,538.498,0.0
53031.0,STARLINK-4137,PAYLOAD,2022-12-03 05:36:37,15.08831318,0.0001806,53.2194,27.2706,41.685,318.4279,-9.0269e-06,-4.32e-06,0.0,0 STARLINK-4137,1 53031U 22076AX  22337.23376651 -.00000432  00000-0 -90269-5 0  9991,2 53031  53.2194  27.2706 0001806  41.6850 318.4279 15.08831318 23570,6917.906999999997,95.438,541.021,538.523,0.0
53031.0,STARLINK-4137,PAYLOAD,2022-12-03 13:33:32,15.08835988,0.0001785,53.2193,25.7828,44.7996,315.314,2.8974e-05,1.73e-06,0.0,0 STARLINK-4137,1 53031U 22076AX  22337.56496307  .00000173  00000-0  28974-4 0  9991,2 53031  53.2193  25.7828 0001785  44.7996 315.3140 15.08835988 23152,6917.893,95.438,540.992,538.523,0.0
53031.0,STARLINK-4137,PAYLOAD,2022-12-03 19:55:05,15.08838648,0.0001794,53.2193,24.5935,44.9737,315.14,3.1916e-05,2.2e-06,0.0,0 STARLINK-4137,1 53031U 22076AX  22337.82992148  .00000220  00000-0  31916-4 0  9997,2 53031  53.2193  24.5935 0001794  44.9737 315.1400 15.08838648 23662,6917.885,95.438,540.991,538.508,0.0
53031.0,STARLINK-4137,PAYLOAD,2022-12-04 13:24:19,15.08838306,0.00018,53.2194,21.3225,44.7552,315.3585,-5.8864e-06,-3.82e-06,0.0,0 STARLINK-4137,1 53031U 22076AX  22338.55856370 -.00000382  00000-0 -58864-5 0  9997,2 53031  53.2194  21.3225 0001800  44.7552 315.3585 15.08838306 23309,6917.886,95.438,540.996,538.505,0.0
53031.0,STARLINK-4137,PAYLOAD,2022-12-04 18:10:30,15.0882757,0.0001776,53.2194,20.4306,45.5171,314.5966,-9.0839e-05,-1.733e-05,0.0,0 STARLINK-4137,1 53031U 22076AX  22338.75729375 -.00001733  00000-0 -90839-4 0  9991,2 53031  53.2194  20.4306 0001776  45.5171 314.5966 15.08827570 23807,6917.918000000002,95.438,541.012,538.555,0.0
53031.0,STARLINK-4137,PAYLOAD,2022-12-04 19:45:53,15.08831173,0.0001812,53.2194,20.1334,43.3578,316.7556,-5.9393e-05,-1.233e-05,0.0,0 STARLINK-4137,1 53031U 22076AX  22338.82353106 -.00001233  00000-0 -59393-4 0  9999,2 53031  53.2194  20.1334 0001812  43.3578 316.7556 15.08831173 23345,6917.906999999997,95.438,541.026,538.519,0.0
53031.0,STARLINK-4137,PAYLOAD,2022-12-05 03:42:48,15.08838031,0.0001776,53.2194,18.6461,44.2057,315.9077,2.1846e-07,-2.85e-06,0.0,0 STARLINK-4137,1 53031U 22076AX  22339.15472540 -.00000285  00000-0  21846-6 0  9999,2 53031  53.2194  18.6461 0001776  44.2057 315.9077 15.08838031 23865,6917.886,95.438,540.98,538.523,0.0
53031.0,STARLINK-4137,PAYLOAD,2022-12-05 11:39:43,15.08842013,0.000182,53.2194,17.1593,43.8322,316.2814,0.0001043,1.372e-05,0.0,0 STARLINK-4137,1 53031U 22076AX  22339.48591937  .00001372  00000-0  10430-3 0  9998,2 53031  53.2194  17.1593 0001820  43.8322 316.2814 15.08842013 23447,6917.874,95.437,540.998,538.48,0.0
53031.0,STARLINK-4137,PAYLOAD,2022-12-05 19:36:38,15.08848956,0.0001851,53.2195,15.6726,43.4343,316.6795,0.00010338,1.358e-05,0.0,0 STARLINK-4137,1 53031U 22076AX  22339.81711365  .00001358  00000-0  10338-3 0  9995,2 53031  53.2195  15.6726 0001851  43.4343 316.6795 15.08848956 23963,6917.853,95.437,540.999,538.438,0.0
53031.0,STARLINK-4137,PAYLOAD,2022-12-06 13:05:53,15.08836509,0.0001901,53.2196,12.4015,44.692,315.4225,7.803e-06,-1.64e-06,0.0,0 STARLINK-4137,1 53031U 22076AX  22340.54576329 -.00000164  00000-0  78030-5 0  9996,2 53031  53.2196  12.4015 0001901  44.6920 315.4225 15.08836509 23607,6917.891,95.438,541.071,538.441,0.0
53031.0,STARLINK-4137,PAYLOAD,2022-12-06 14:41:18,15.08825547,0.000191,53.2195,12.1041,43.6748,316.4395,-9.7042e-05,-1.832e-05,0.0,0 STARLINK-4137,1 53031U 22076AX  22340.61201421 -.00001832  00000-0 -97042-4 0  9999,2 53031  53.2195  12.1041 0001910  43.6748 316.4395 15.08825547 24081,6917.925,95.438,541.111,538.4680000000002,0.0
53031.0,STARLINK-4137,PAYLOAD,2022-12-06 16:16:41,15.08827589,0.000183,53.2196,11.8067,44.3352,315.7786,-8.7712e-05,-1.683e-05,0.0,0 STARLINK-4137,1 53031U 22076AX  22340.67825284 -.00001683  00000-0 -87712-4 0  9991,2 53031  53.2196  11.8067 0001830  44.3352 315.7786 15.08827589 23629,6917.918000000002,95.438,541.049,538.5169999999998,0.0
53031.0,STARLINK-4137,PAYLOAD,2022-12-07 08:10:32,15.08832324,0.0001874,53.2195,8.8334,42.0777,318.0359,-3.2265e-05,-8.01e-06,0.0,0 STARLINK-4137,1 53031U 22076AX  22341.34065105 -.00000801  00000-0 -32265-4 0  9998,2 53031  53.2195   8.8334 0001874  42.0777 318.0359 15.08832324 24193,6917.904,95.438,541.065,538.472,0.0
53031.0,STARLINK-4137,PAYLOAD,2022-12-07 19:18:14,15.08837922,0.0001947,53.2197,6.752000000000002,44.2559,315.8589,-8.2506e-05,-1.601e-05,0.0,0 STARLINK-4137,1 53031U 22076AX  22341.80433156 -.00001601  00000-0 -82506-4 0  9996,2 53031  53.2197   6.7520 0001947  44.2559 315.8589 15.08837922 23796,6917.887,95.438,541.099,538.405,0.0
53031.0,STARLINK-4137,PAYLOAD,2022-12-08 04:50:32,15.08845289,0.0001957,53.2196,4.9678,45.9925,314.1229,4.115e-05,3.67e-06,0.0,0 STARLINK-4137,1 53031U 22076AX  22342.20176255  .00000367  00000-0  41150-4 0  9991,2 53031  53.2196   4.9678 0001957  45.9925 314.1229 15.08845289 24323,6917.864000000001,95.437,541.0830000000002,538.375,0.0
53031.0,STARLINK-4137,PAYLOAD,2022-12-08 14:22:48,15.08869566,0.000179,53.2195,3.1833,45.9221,314.1918,0.00020414,2.965e-05,0.0,0 STARLINK-4137,1 53031U 22076AX  22342.59917773  .00002965  00000-0  20414-3 0  9996,2 53031  53.2195   3.1833 0001790  45.9221 314.1918 15.08869566 23913,6917.79,95.436,540.893,538.4169999999998,0.0
53031.0,STARLINK-4137,PAYLOAD,2022-12-08 19:08:58,15.08864348,0.0002862,53.2195,2.2916,41.9597,318.1614,0.00024469,3.611e-05,0.0,0 STARLINK-4137,1 53031U 22076AX  22342.79789999  .00003611  00000-0  24469-3 0  9998,2 53031  53.2195   2.2916 0002862  41.9597 318.1614 15.08864348 24414,6917.806,95.436,541.651,537.691,0.0
53031.0,STARLINK-4137,PAYLOAD,2022-12-09 01:30:34,15.088186,0.0001825,53.2194,1.1021,41.4555,318.6575,-4.5159e-05,-1.006e-05,0.0,0 STARLINK-4137,1 53031U 22076AX  22343.06289512 -.00001006  00000-0 -45159-4 0  9993,2 53031  53.2194   1.1021 0001825  41.4555 318.6575 15.08818600 24450,6917.946,95.439,541.073,538.548,0.0
53031.0,STARLINK-4137,PAYLOAD,2022-12-09 12:38:15,15.08831386,0.0001878,53.2195,359.0211,40.47,319.6431,-2.8629e-05,-7.44e-06,0.0,0 STARLINK-4137,1 53031U 22076AX  22343.52656981 -.00000744  00000-0 -28629-4 0  9993,2 53031  53.2195 359.0211 0001878  40.4700 319.6431 15.08831386 24050,6917.906999999997,95.438,541.071,538.4730000000002,0.0
53031.0,STARLINK-4137,PAYLOAD,2022-12-10 10:53:39,15.08836742,0.0001958,53.2193,354.8581,43.0486,317.0659,-6.5997e-05,-1.338e-05,0.0,0 STARLINK-4137,1 53031U 22076AX  22344.45393058 -.00001338  00000-0 -65997-4 0  9998,2 53031  53.2193 354.8581 0001958  43.0486 317.0659 15.08836742 24190,6917.89,95.438,541.11,538.401,0.0
